sat12169
1 12169U 78026J   20046.91740574  .00000098  00000-0  53105-4 0  9996
2 12169  98.6466  31.2839 0071889  34.5150 358.8015 14.30312717 29322
